{"type": "FeatureCollection", "features": [ {"type": "Feature", "properties": {"norad_id": 38552, "name": "METEOSAT-10 (MSG-3)", "group": "weather", "lat": 1.7837958266908944, "lon": 86.14399365204982, "alt_km": 35785.80800637394, "timestamp": "2025-12-22T23:36:20.342003+00:00", "meta": {"OBJECT_NAME": "METEOSAT-10 (MSG-3)", "OBJECT_ID": "2012-035B", "EPOCH": "2025-12-22T01:10:55.257888", "MEAN_MOTION": 1.00276818, "ECCENTRICITY": 7.128e-05, "INCLINATION": 4.2491, "RA_OF_ASC_NODE": 61.6977, "ARG_OF_PERICENTER": 266.7505, "MEAN_ANOMALY": 140.4613, "EPHEMERIS_TYPE": 0, "CLASSIFICATION_TYPE": "U", "NORAD_CAT_ID": 38552, "ELEMENT_SET_NO": 999, "REV_AT_EPOCH": 4908, "BSTAR": 0, "MEAN_MOTION_DOT": 1.6e-07, "MEAN_MOTION_DDOT": 0}, "tle": {"line1": "1 38552U 12035B   25356.04925067  .00000016  00000+0  00000+0 0  9993", "line2": "2 38552   4.2491  61.6977 0000712 266.7505 140.4613  1.00276818 49085"}}, "geometry": {"type": "Point", "coordinates": [86.14399365204982, 1.7837958266908944]}}, {"type": "Feature", "properties": {"norad_id": 38771, "name": "METOP-B", "group": "weather", "lat": -79.06764625087803, "lon": 99.02141931720602, "alt_km": 829.9894092473305, "timestamp": "2025-12-22T23:36:20.342028+00:00", "meta": {"OBJECT_NAME": "METOP-B", "OBJECT_ID": "2012-049A", "EPOCH": "2025-12-22T13:51:39.322944", "MEAN_MOTION": 14.21411976, "ECCENTRICITY": 0.00032126, "INCLINATION": 98.6784, "RA_OF_ASC_NODE": 46.3689, "ARG_OF_PERICENTER": 123.4078, "MEAN_ANOMALY": 236.7407, "EPHEMERIS_TYPE": 0, "CLASSIFICATION_TYPE": "U", "NORAD_CAT_ID": 38771, "ELEMENT_SET_NO": 999, "REV_AT_EPOCH": 68817, "BSTAR": 7.9266795e-05, "MEAN_MOTION_DOT": 1.3e-06, "MEAN_MOTION_DDOT": 0}, "tle": {"line1": "1 38771U 12049A   25356.57753846  .00000130  00000+0  79267-4 0  9996", "line2": "2 38771  98.6784  46.3689 0003212 123.4078 236.7407 14.21411976688174"}}, "geometry": {"type": "Point", "coordinates": [99.02141931720602, -79.06764625087803]}}, {"type": "Feature", "properties": {"norad_id": 39216, "name": "INSAT-3D", "group": "weather", "lat": 1.1072015734899532, "lon": -144.6234693774479, "alt_km": 35777.754537843204, "timestamp": "2025-12-22T23:36:20.342042+00:00", "meta": {"OBJECT_NAME": "INSAT-3D", "OBJECT_ID": "2013-038B", "EPOCH": "2025-12-22T13:46:50.886048", "MEAN_MOTION": 1.00275914, "ECCENTRICITY": 0.00018244, "INCLINATION": 1.4687, "RA_OF_ASC_NODE": 84.8862, "ARG_OF_PERICENTER": 153.2944, "MEAN_ANOMALY": 189.4172, "EPHEMERIS_TYPE": 0, "CLASSIFICATION_TYPE": "U", "NORAD_CAT_ID": 39216, "ELEMENT_SET_NO": 999, "REV_AT_EPOCH": 4530, "BSTAR": 0, "MEAN_MOTION_DOT": -3.18e-06, "MEAN_MOTION_DDOT": 0}, "tle": {"line1": "1 39216U 13038B   25356.57420007 -.00000318  00000+0  00000+0 0  9993", "line2": "2 39216   1.4687  84.8862 0001824 153.2944 189.4172  1.00275914 45301"}}, "geometry": {"type": "Point", "coordinates": [-144.6234693774479, 1.1072015734899532]}}, {"type": "Feature", "properties": {"norad_id": 39260, "name": "FENGYUN 3C", "group": "weather", "lat": -46.211027478767484, "lon": -16.885941947902282, "alt_km": 855.6269115829746, "timestamp": "2025-12-22T23:36:20.342053+00:00", "meta": {"OBJECT_NAME": "FENGYUN 3C", "OBJECT_ID": "2013-052A", "EPOCH": "2025-12-22T20:26:05.363808", "MEAN_MOTION": 14.15699159, "ECCENTRICITY": 0.0014837, "INCLINATION": 98.4775, "RA_OF_ASC_NODE": 334.0376, "ARG_OF_PERICENTER": 166.7627, "MEAN_ANOMALY": 193.394, "EPHEMERIS_TYPE": 0, "CLASSIFICATION_TYPE": "U", "NORAD_CAT_ID": 39260, "ELEMENT_SET_NO": 999, "REV_AT_EPOCH": 63361, "BSTAR": 6.537e-05, "MEAN_MOTION_DOT": 8.7e-07, "MEAN_MOTION_DDOT": 0}, "tle": {"line1": "1 39260U 13052A   25356.85145097  .00000087  00000+0  65370-4 0  9990", "line2": "2 39260  98.4775 334.0376 0014837 166.7627 193.3940 14.15699159633614"}}, "geometry": {"type": "Point", "coordinates": [-16.885941947902282, -46.211027478767484]}}, {"type": "Feature", "properties": {"norad_id": 40069, "name": "METEOR-M 2", "group": "weather", "lat": 35.4454503572242, "lon": 160.27954457752512, "alt_km": 814.9306608985316, "timestamp": "2025-12-22T23:36:20.342064+00:00", "meta": {"OBJECT_NAME": "METEOR-M 2", "OBJECT_ID": "2014-037A", "EPOCH": "2025-12-22T14:28:58.715040", "MEAN_MOTION": 14.21389068, "ECCENTRICITY": 0.00054682, "INCLINATION": 98.4908, "RA_OF_ASC_NODE": 333.8097, "ARG_OF_PERICENTER": 178.5435, "MEAN_ANOMALY": 181.576, "EPHEMERIS_TYPE": 0, "CLASSIFICATION_TYPE": "U", "NORAD_CAT_ID": 40069, "ELEMENT_SET_NO": 999, "REV_AT_EPOCH": 59423, "BSTAR": -5.8109022e-05, "MEAN_MOTION_DOT": -1.69e-06, "MEAN_MOTION_DDOT": 0}, "tle": {"line1": "1 40069U 14037A   25356.60345735 -.00000169  00000+0 -58109-4 0  9992", "line2": "2 40069  98.4908 333.8097 0005468 178.5435 181.5760 14.21389068594231"}}, "geometry": {"type": "Point", "coordinates": [160.27954457752512, 35.4454503572242]}}, {"type": "Feature", "properties": {"norad_id": 40267, "name": "HIMAWARI-8", "group": "weather", "lat": -0.022970834041430282, "lon": -133.48478513269038, "alt_km": 35785.302878383634, "timestamp": "2025-12-22T23:36:20.342076+00:00", "meta": {"OBJECT_NAME": "HIMAWARI-8", "OBJECT_ID": "2014-060A", "EPOCH": "2025-12-22T13:50:05.574624", "MEAN_MOTION": 1.0027245, "ECCENTRICITY": 8.015e-05, "INCLINATION": 0.0463, "RA_OF_ASC_NODE": 220.1473, "ARG_OF_PERICENTER": 85.6977, "MEAN_ANOMALY": 133.7225, "EPHEMERIS_TYPE": 0, "CLASSIFICATION_TYPE": "U", "NORAD_CAT_ID": 40267, "ELEMENT_SET_NO": 999, "REV_AT_EPOCH": 4098, "BSTAR": 0, "MEAN_MOTION_DOT": -2.54e-06, "MEAN_MOTION_DDOT": 0}, "tle": {"line1": "1 40267U 14060A   25356.57645341 -.00000254  00000+0  00000+0 0  9996", "line2": "2 40267   0.0463 220.1473 0000801  85.6977 133.7225  1.00272450 40989"}}, "geometry": {"type": "Point", "coordinates": [-133.48478513269038, -0.022970834041430282]}}, {"type": "Feature", "properties": {"norad_id": 40367, "name": "FENGYUN 2G", "group": "weather", "lat": 4.8834794981372225, "lon": -174.90847705733043, "alt_km": 35789.32854627155, "timestamp": "2025-12-22T23:36:20.342088+00:00", "meta": {"OBJECT_NAME": "FENGYUN 2G", "OBJECT_ID": "2014-090A", "EPOCH": "2025-12-22T13:38:14.210592", "MEAN_MOTION": 1.00260417, "ECCENTRICITY": 0.00026503, "INCLINATION": 5.1915, "RA_OF_ASC_NODE": 74.985, "ARG_OF_PERICENTER": 203.3456, "MEAN_ANOMALY": 116.7977, "EPHEMERIS_TYPE": 0, "CLASSIFICATION_TYPE": "U", "NORAD_CAT_ID": 40367, "ELEMENT_SET_NO": 999, "REV_AT_EPOCH": 4022, "BSTAR": 0, "MEAN_MOTION_DOT": -2.79e-06, "MEAN_MOTION_DDOT": 0}, "tle": {"line1": "1 40367U 14090A   25356.56822003 -.00000279  00000+0  00000+0 0  9998", "line2": "2 40367   5.1915  74.9850 0002650 203.3456 116.7977  1.00260417 40229"}}, "geometry": {"type": "Point", "coordinates": [-174.90847705733043, 4.8834794981372225]}}, {"type": "Feature", "properties": {"norad_id": 40732, "name": "METEOSAT-11 (MSG-4)", "group": "weather", "lat": 1.1058876640793422, "lon": 95.01520088355028, "alt_km": 35787.60359766839, "timestamp": "2025-12-22T23:36:20.342100+00:00", "meta": {"OBJECT_NAME": "METEOSAT-11 (MSG-4)", "OBJECT_ID": "2015-034A", "EPOCH": "2025-12-22T04:38:57.052896", "MEAN_MOTION": 1.00270451, "ECCENTRICITY": 7.893e-05, "INCLINATION": 2.7599, "RA_OF_ASC_NODE": 71.9763, "ARG_OF_PERICENTER": 136.9247, "MEAN_ANOMALY": 321.0298, "EPHEMERIS_TYPE": 0, "CLASSIFICATION_TYPE": "U", "NORAD_CAT_ID": 40732, "ELEMENT_SET_NO": 999, "REV_AT_EPOCH": 544, "BSTAR": 0, "MEAN_MOTION_DOT": 8.1e-07, "MEAN_MOTION_DDOT": 0}, "tle": {"line1": "1 40732U 15034A   25356.19371589  .00000081  00000+0  00000+0 0  9990", "line2": "2 40732   2.7599  71.9763 0000789 136.9247 321.0298  1.00270451  5447"}}, "geometry": {"type": "Point", "coordinates": [95.01520088355028, 1.1058876640793422]}}, {"type": "Feature", "properties": {"norad_id": 41105, "name": "ELEKTRO-L 2", "group": "weather", "lat": -0.12339827814352526, "lon": 71.41816982842226, "alt_km": 35798.718455068076, "timestamp": "2025-12-22T23:36:20.342112+00:00", "meta": {"OBJECT_NAME": "ELEKTRO-L 2", "OBJECT_ID": "2015-074A", "EPOCH": "2025-12-22T09:40:20.690400", "MEAN_MOTION": 1.00272412, "ECCENTRICITY": 0.00034908, "INCLINATION": 6.2484, "RA_OF_ASC_NODE": 72.7137, "ARG_OF_PERICENTER": 209.0191, "MEAN_ANOMALY": 300.0898, "EPHEMERIS_TYPE": 0, "CLASSIFICATION_TYPE": "U", "NORAD_CAT_ID": 41105, "ELEMENT_SET_NO": 999, "REV_AT_EPOCH": 3673, "BSTAR": 0, "MEAN_MOTION_DOT": -9.9e-07, "MEAN_MOTION_DDOT": 0}, "tle": {"line1": "1 41105U 15074A   25356.40301725 -.00000099  00000+0  00000+0 0  9998", "line2": "2 41105   6.2484  72.7137 0003490 209.0191 300.0898  1.00272412 36738"}}, "geometry": {"type": "Point", "coordinates": [71.41816982842226, -0.12339827814352526]}}, {"type": "Feature", "properties": {"norad_id": 41752, "name": "INSAT-3DR", "group": "weather", "lat": 0.12055218316342123, "lon": 159.69654450567404, "alt_km": 35808.617031752, "timestamp": "2025-12-22T23:36:20.342124+00:00", "meta": {"OBJECT_NAME": "INSAT-3DR", "OBJECT_ID": "2016-054A", "EPOCH": "2025-12-22T13:31:07.392000", "MEAN_MOTION": 1.00271583, "ECCENTRICITY": 0.00141711, "INCLINATION": 0.1152, "RA_OF_ASC_NODE": 86.2473, "ARG_OF_PERICENTER": 185.4983, "MEAN_ANOMALY": 96.3911, "EPHEMERIS_TYPE": 0, "CLASSIFICATION_TYPE": "U", "NORAD_CAT_ID": 41752, "ELEMENT_SET_NO": 999, "REV_AT_EPOCH": 3404, "BSTAR": 0, "MEAN_MOTION_DOT": -5.5e-07, "MEAN_MOTION_DDOT": 0}, "tle": {"line1": "1 41752U 16054A   25356.56328000 -.00000055  00000+0  00000+0 0  9999", "line2": "2 41752   0.1152  86.2473 0014171 185.4983  96.3911  1.00271583 34049"}}, "geometry": {"type": "Point", "coordinates": [159.69654450567404, 0.12055218316342123]}}]}